CCSDS_OMM_VERS = 2.0
CREATION_DATE  = 
ORIGINATOR     = 

OBJECT_NAME    = SHENZHOU-21 (SZ-21)
OBJECT_ID      = 2025-246A
CENTER_NAME    = EARTH
REF_FRAME      = TEME
TIME_SYSTEM    = UTC
MEAN_ELEMENT_THEORY = SGP/SGP4

EPOCH          = 2025-11-04T20:44:22.264512
MEAN_MOTION    = 15.60384612
ECCENTRICITY   = .00062289
INCLINATION    = 41.4668
RA_OF_ASC_NODE = 246.7216
ARG_OF_PERICENTER = 323.7739
MEAN_ANOMALY   = 36.2677

EPHEMERIS_TYPE = 0
CLASSIFICATION_TYPE = U
NORAD_CAT_ID   = 66263
ELEMENT_SET_NO = 999
REV_AT_EPOCH   = 25809
BSTAR          = .33527055E-3
MEAN_MOTION_DOT = .28084E-3
MEAN_MOTION_DDOT = 0

CCSDS_OMM_VERS = 2.0
CREATION_DATE  = 
ORIGINATOR     = 

OBJECT_NAME    = CZ-2F R/B
OBJECT_ID      = 2025-246B
CENTER_NAME    = EARTH
REF_FRAME      = TEME
TIME_SYSTEM    = UTC
MEAN_ELEMENT_THEORY = SGP/SGP4

EPOCH          = 2025-11-04T03:06:07.110144
MEAN_MOTION    = 16.06758210
ECCENTRICITY   = .0095739
INCLINATION    = 41.4653
RA_OF_ASC_NODE = 249.8168
ARG_OF_PERICENTER = 151.8123
MEAN_ANOMALY   = 208.7960

EPHEMERIS_TYPE = 0
CLASSIFICATION_TYPE = U
NORAD_CAT_ID   = 66264
ELEMENT_SET_NO = 999
REV_AT_EPOCH   = 56
BSTAR          = .6392E-3
MEAN_MOTION_DOT = .1001864E-1
MEAN_MOTION_DDOT = .75817E-5

